{"type": "FeatureCollection", "features": [ {"type": "Feature", "properties": {"norad_id": 41556, "name": "ZIYUAN 3-02 (ZY 3-02)", "group": "resource", "lat": 43.67666941003484, "lon": 66.11756283730594, "alt_km": 505.66430829885303, "timestamp": "2025-12-25T07:00:33.699941+00:00", "meta": {"OBJECT_NAME": "ZIYUAN 3-02 (ZY 3-02)", "OBJECT_ID": "2016-033A", "EPOCH": "2025-12-24T22:55:19.666272", "MEAN_MOTION": 15.21225207, "ECCENTRICITY": 0.00114229, "INCLINATION": 97.4024, "RA_OF_ASC_NODE": 72.9174, "ARG_OF_PERICENTER": 200.6198, "MEAN_ANOMALY": 159.4579, "EPHEMERIS_TYPE": 0, "CLASSIFICATION_TYPE": "U", "NORAD_CAT_ID": 41556, "ELEMENT_SET_NO": 999, "REV_AT_EPOCH": 53149, "BSTAR": 0.00037495549, "MEAN_MOTION_DOT": 8.317e-05, "MEAN_MOTION_DDOT": 0}, "tle": {"line1": "1 41556U 16033A   25358.95508873  .00008317  00000+0  37496-3 0  9992", "line2": "2 41556  97.4024  72.9174 0011422 200.6198 159.4579 15.21225207531494"}}, "geometry": {"type": "Point", "coordinates": [66.11756283730594, 43.67666941003484]}}, {"type": "Feature", "properties": {"norad_id": 41599, "name": "CARTOSAT-2C", "group": "resource", "lat": -73.72153328226098, "lon": -150.30664142251123, "alt_km": 520.0114203852127, "timestamp": "2025-12-25T07:00:33.699952+00:00", "meta": {"OBJECT_NAME": "CARTOSAT-2C", "OBJECT_ID": "2016-040A", "EPOCH": "2025-12-24T23:33:53.640576", "MEAN_MOTION": 15.19222936, "ECCENTRICITY": 0.00107057, "INCLINATION": 97.4744, "RA_OF_ASC_NODE": 56.1046, "ARG_OF_PERICENTER": 24.2317, "MEAN_ANOMALY": 335.9418, "EPHEMERIS_TYPE": 0, "CLASSIFICATION_TYPE": "U", "NORAD_CAT_ID": 41599, "ELEMENT_SET_NO": 999, "REV_AT_EPOCH": 52726, "BSTAR": 0.00022880792, "MEAN_MOTION_DOT": 4.756e-05, "MEAN_MOTION_DDOT": 0}, "tle": {"line1": "1 41599U 16040A   25358.98187084  .00004756  00000+0  22881-3 0  9992", "line2": "2 41599  97.4744  56.1046 0010705  24.2317 335.9418 15.19222936527264"}}, "geometry": {"type": "Point", "coordinates": [-150.30664142251123, -73.72153328226098]}}, {"type": "Feature", "properties": {"norad_id": 41601, "name": "SKYSAT-C1", "group": "resource", "lat": -18.912415482531532, "lon": -146.80818603442805, "alt_km": 473.0015282224949, "timestamp": "2025-12-25T07:00:33.699962+00:00", "meta": {"OBJECT_NAME": "SKYSAT-C1", "OBJECT_ID": "2016-040C", "EPOCH": "2025-12-24T20:44:36.125664", "MEAN_MOTION": 15.32803392, "ECCENTRICITY": 9.494e-05, "INCLINATION": 96.9806, "RA_OF_ASC_NODE": 35.1941, "ARG_OF_PERICENTER": 324.7262, "MEAN_ANOMALY": 35.3918, "EPHEMERIS_TYPE": 0, "CLASSIFICATION_TYPE": "U", "NORAD_CAT_ID": 41601, "ELEMENT_SET_NO": 999, "REV_AT_EPOCH": 53113, "BSTAR": 0.00032009116, "MEAN_MOTION_DOT": 0.00010072, "MEAN_MOTION_DDOT": 0}, "tle": {"line1": "1 41601U 16040C   25358.86430701  .00010072  00000+0  32009-3 0  9991", "line2": "2 41601  96.9806  35.1941 0000949 324.7262  35.3918 15.32803392531131"}}, "geometry": {"type": "Point", "coordinates": [-146.80818603442805, -18.912415482531532]}}, {"type": "Feature", "properties": {"norad_id": 41603, "name": "LAPAN-A3", "group": "resource", "lat": -65.74584643354692, "lon": 12.554286349762938, "alt_km": 472.31938096445083, "timestamp": "2025-12-25T07:00:33.699973+00:00", "meta": {"OBJECT_NAME": "LAPAN-A3", "OBJECT_ID": "2016-040E", "EPOCH": "2025-12-24T23:27:37.218240", "MEAN_MOTION": 15.31650414, "ECCENTRICITY": 0.0008679, "INCLINATION": 97.1434, "RA_OF_ASC_NODE": 356.089, "ARG_OF_PERICENTER": 283.0163, "MEAN_ANOMALY": 77.011, "EPHEMERIS_TYPE": 0, "CLASSIFICATION_TYPE": "U", "NORAD_CAT_ID": 41603, "ELEMENT_SET_NO": 999, "REV_AT_EPOCH": 52813, "BSTAR": 0.00015826493, "MEAN_MOTION_DOT": 4.767e-05, "MEAN_MOTION_DDOT": 0}, "tle": {"line1": "1 41603U 16040E   25358.97751410  .00004767  00000+0  15826-3 0  9990", "line2": "2 41603  97.1434 356.0890 0008679 283.0163  77.0110 15.31650414528133"}}, "geometry": {"type": "Point", "coordinates": [12.554286349762938, -65.74584643354692]}}, {"type": "Feature", "properties": {"norad_id": 41604, "name": "BIROS", "group": "resource", "lat": -31.718471615462747, "lon": 35.669922218978016, "alt_km": 297.43797767660726, "timestamp": "2025-12-25T07:00:33.699983+00:00", "meta": {"OBJECT_NAME": "BIROS", "OBJECT_ID": "2016-040F", "EPOCH": "2025-12-24T13:04:12.807552", "MEAN_MOTION": 15.94433858, "ECCENTRICITY": 0.00038069, "INCLINATION": 97.0656, "RA_OF_ASC_NODE": 30.4902, "ARG_OF_PERICENTER": 125.9749, "MEAN_ANOMALY": 234.1881, "EPHEMERIS_TYPE": 0, "CLASSIFICATION_TYPE": "U", "NORAD_CAT_ID": 41604, "ELEMENT_SET_NO": 999, "REV_AT_EPOCH": 53060, "BSTAR": 0.00067310461, "MEAN_MOTION_DOT": 0.00251039, "MEAN_MOTION_DDOT": 2.6148042e-05}, "tle": {"line1": "1 41604U 16040F   25358.54459268  .00251039  26148-4  67310-3 0  9997", "line2": "2 41604  97.0656  30.4902 0003806 125.9749 234.1881 15.94433858530603"}}, "geometry": {"type": "Point", "coordinates": [35.669922218978016, -31.718471615462747]}}, {"type": "Feature", "properties": {"norad_id": 41727, "name": "GAOFEN-3", "group": "resource", "lat": -1.6608529675489747, "lon": 4.932029038702658, "alt_km": 753.9310030405504, "timestamp": "2025-12-25T07:00:33.699993+00:00", "meta": {"OBJECT_NAME": "GAOFEN-3", "OBJECT_ID": "2016-049A", "EPOCH": "2025-12-25T00:21:24.611616", "MEAN_MOTION": 14.42216139, "ECCENTRICITY": 0.00010824, "INCLINATION": 98.4035, "RA_OF_ASC_NODE": 4.4135, "ARG_OF_PERICENTER": 55.9867, "MEAN_ANOMALY": 304.1425, "EPHEMERIS_TYPE": 0, "CLASSIFICATION_TYPE": "U", "NORAD_CAT_ID": 41727, "ELEMENT_SET_NO": 999, "REV_AT_EPOCH": 49354, "BSTAR": -5.688802e-06, "MEAN_MOTION_DOT": -6.2e-07, "MEAN_MOTION_DDOT": 0}, "tle": {"line1": "1 41727U 16049A   25359.01486819 -.00000062  00000+0 -56888-5 0  9991", "line2": "2 41727  98.4035   4.4135 0001082  55.9867 304.1425 14.42216139493547"}}, "geometry": {"type": "Point", "coordinates": [4.932029038702658, -1.6608529675489747]}}, {"type": "Feature", "properties": {"norad_id": 41771, "name": "SKYSAT-C4", "group": "resource", "lat": -32.71224391972353, "lon": -160.61426441740568, "alt_km": 444.6872262271381, "timestamp": "2025-12-25T07:00:33.700004+00:00", "meta": {"OBJECT_NAME": "SKYSAT-C4", "OBJECT_ID": "2016-058B", "EPOCH": "2025-12-24T19:11:29.833440", "MEAN_MOTION": 15.42586627, "ECCENTRICITY": 0.00025333, "INCLINATION": 96.9361, "RA_OF_ASC_NODE": 23.4017, "ARG_OF_PERICENTER": 124.0416, "MEAN_ANOMALY": 236.1074, "EPHEMERIS_TYPE": 0, "CLASSIFICATION_TYPE": "U", "NORAD_CAT_ID": 41771, "ELEMENT_SET_NO": 999, "REV_AT_EPOCH": 51853, "BSTAR": 0.00035759888, "MEAN_MOTION_DOT": 0.00015476, "MEAN_MOTION_DDOT": 0}, "tle": {"line1": "1 41771U 16058B   25358.79965085  .00015476  00000+0  35760-3 0  9998", "line2": "2 41771  96.9361  23.4017 0002533 124.0416 236.1074 15.42586627518535"}}, "geometry": {"type": "Point", "coordinates": [-160.61426441740568, -32.71224391972353]}}, {"type": "Feature", "properties": {"norad_id": 41772, "name": "SKYSAT-C5", "group": "resource", "lat": 67.65330113843456, "lon": -119.8987327942277, "alt_km": 458.39532201758357, "timestamp": "2025-12-25T07:00:33.700014+00:00", "meta": {"OBJECT_NAME": "SKYSAT-C5", "OBJECT_ID": "2016-058C", "EPOCH": "2025-12-24T16:26:12.494112", "MEAN_MOTION": 15.34086313, "ECCENTRICITY": 0.00039444, "INCLINATION": 97.0739, "RA_OF_ASC_NODE": 41.9366, "ARG_OF_PERICENTER": 233.2582, "MEAN_ANOMALY": 126.83, "EPHEMERIS_TYPE": 0, "CLASSIFICATION_TYPE": "U", "NORAD_CAT_ID": 41772, "ELEMENT_SET_NO": 999, "REV_AT_EPOCH": 51699, "BSTAR": 0.00029731839, "MEAN_MOTION_DOT": 9.736e-05, "MEAN_MOTION_DDOT": 0}, "tle": {"line1": "1 41772U 16058C   25358.68486683  .00009736  00000+0  29732-3 0  9993", "line2": "2 41772  97.0739  41.9366 0003944 233.2582 126.8300 15.34086313516996"}}, "geometry": {"type": "Point", "coordinates": [-119.8987327942277, 67.65330113843456]}}, {"type": "Feature", "properties": {"norad_id": 41773, "name": "SKYSAT-C2", "group": "resource", "lat": -82.83655457771086, "lon": 102.57781918935538, "alt_km": 460.57408255934024, "timestamp": "2025-12-25T07:00:33.700025+00:00", "meta": {"OBJECT_NAME": "SKYSAT-C2", "OBJECT_ID": "2016-058D", "EPOCH": "2025-12-24T18:53:55.761216", "MEAN_MOTION": 15.37535283, "ECCENTRICITY": 0.00028111, "INCLINATION": 97.035, "RA_OF_ASC_NODE": 22.804, "ARG_OF_PERICENTER": 358.0157, "MEAN_ANOMALY": 2.1077, "EPHEMERIS_TYPE": 0, "CLASSIFICATION_TYPE": "U", "NORAD_CAT_ID": 41773, "ELEMENT_SET_NO": 999, "REV_AT_EPOCH": 51821, "BSTAR": 0.00031458029, "MEAN_MOTION_DOT": 0.00011512, "MEAN_MOTION_DDOT": 0}, "tle": {"line1": "1 41773U 16058D   25358.78745094  .00011512  00000+0  31458-3 0  9992", "line2": "2 41773  97.0350  22.8040 0002811 358.0157   2.1077 15.37535283518211"}}, "geometry": {"type": "Point", "coordinates": [102.57781918935538, -82.83655457771086]}}, {"type": "Feature", "properties": {"norad_id": 41774, "name": "SKYSAT-C3", "group": "resource", "lat": 64.05830537995438, "lon": 17.98049825363745, "alt_km": 424.5275323025435, "timestamp": "2025-12-25T07:00:33.700035+00:00", "meta": {"OBJECT_NAME": "SKYSAT-C3", "OBJECT_ID": "2016-058E", "EPOCH": "2025-12-24T19:50:49.663680", "MEAN_MOTION": 15.44820533, "ECCENTRICITY": 0.00021264, "INCLINATION": 96.928, "RA_OF_ASC_NODE": 32.0116, "ARG_OF_PERICENTER": 105.883, "MEAN_ANOMALY": 254.2654, "EPHEMERIS_TYPE": 0, "CLASSIFICATION_TYPE": "U", "NORAD_CAT_ID": 41774, "ELEMENT_SET_NO": 999, "REV_AT_EPOCH": 51912, "BSTAR": 0.00042040083, "MEAN_MOTION_DOT": 0.00019642, "MEAN_MOTION_DDOT": 0}, "tle": {"line1": "1 41774U 16058E   25358.82696370  .00019642  00000+0  42040-3 0  9991", "line2": "2 41774  96.9280  32.0116 0002126 105.8830 254.2654 15.44820533519129"}}, "geometry": {"type": "Point", "coordinates": [17.98049825363745, 64.05830537995438]}}]}